COSMOS 2433 (720)       
1 32275U 07052A   23026.72006720 -.00000065  00000+0  00000+0 0  9990
2 32275  66.0643 357.2589 0004880 269.4169 274.1797  2.13104121118723
COSMOS 2432 (719)       
1 32276U 07052B   23026.31866032 -.00000064  00000+0  00000+0 0  9995
2 32276  66.0802 357.3798 0011985 318.5989 224.7267  2.13103458118718
COSMOS 2434 (721)       
1 32393U 07065A   23026.39424404  .00000061  00000+0  00000+0 0  9996
2 32393  64.3533 233.8239 0004851  73.5846 110.3938  2.13103158117421
COSMOS 2436 (723)       
1 32395U 07065C   23026.20325578  .00000060  00000+0  00000+0 0  9999
2 32395  64.3614 233.8907 0016987   7.4861 165.6446  2.13102890117352
COSMOS 2456 (730)       
1 36111U 09070A   23027.34632818 -.00000021  00000+0  00000+0 0  9999
2 36111  64.4164 113.3638 0003141 298.0446  58.7471  2.13099122102101
COSMOS 2457 (733)       
1 36112U 09070B   23026.70927256 -.00000013  00000+0  00000+0 0  9993
2 36112  64.4002 113.2564 0005660 167.4512 189.6831  2.13101322102099
COSMOS 2460 (732)       
1 36402U 10007C   23027.42947948 -.00000067  00000+0  00000+0 0  9996
2 36402  65.9318 355.9882 0002692 294.6638 240.8773  2.13106380100462
COSMOS 2476 (744)       
1 37867U 11064A   23026.54423685 -.00000009  00000+0  00000+0 0  9991
2 37867  64.7009 114.8345 0022335 233.8839 135.0036  2.13101817 87441
COSMOS 2477 (745)       
1 37868U 11064B   23026.37454953 -.00000007  00000+0  00000+0 0  9993
2 37868  64.7074 114.9074 0019566 234.5346 182.1606  2.13101529 87397
COSMOS 2475 (743)       
1 37869U 11064C   23026.34841019 -.00000006  00000+0  00000+0 0  9993
2 37869  64.7158 114.9179 0023755 252.0757 102.8028  2.13101773 87391
COSMOS 2485 (747)       
1 39155U 13019A   23026.46230012 -.00000007  00000+0  00000+0 0  9994
2 39155  64.8625 115.3133 0022803 229.7832 120.6265  2.13101827 75909
COSMOS 2492 (754)       
1 39620U 14012A   23026.71491360 -.00000066  00000+0  00000+0 0  9993
2 39620  65.8165 355.6620 0015123 317.4452 261.0742  2.13103245 68869
COSMOS 2500 (755)       
1 40001U 14032A   23026.38517949 -.00000065  00000+0  00000+0 0  9994
2 40001  65.7583 355.5223 0007026 226.0002 317.5889  2.13102508 67076
COSMOS 2501 (702K)      
1 40315U 14075A   23026.77408047  .00000063  00000+0  00000+0 0  9997
2 40315  63.6586 233.3587 0017011 204.7077  86.3033  2.13101384 63484
COSMOS 2514 (751)       
1 41330U 16008A   23027.31340339 -.00000068  00000+0  00000+0 0  9999
2 41330  65.5551 355.1224 0010269 226.4589 133.4526  2.13102615 54268
COSMOS 2516 (753)       
1 41554U 16032A   23025.55724995  .00000058  00000+0  00000+0 0  9990
2 41554  63.8853 233.7396 0013934 212.0750 147.8864  2.13106403 51839
COSMOS 2522 (752)       
1 42939U 17055A   23026.65861840  .00000062  00000+0  00000+0 0  9992
2 42939  64.1194 234.1626 0005163 239.5661  98.4738  2.13102060 41600
COSMOS 2527 (756)       
1 43508U 18053A   23026.63800700 -.00000009  00000+0  00000+0 0  9992
2 43508  65.0244 115.3538 0008706 225.7694 128.4308  2.13102506 35896
COSMOS 2529 (757)       
1 43687U 18086A   23026.72552811  .00000062  00000+0  00000+0 0  9991
2 43687  64.3372 234.5372 0007035 272.1522  72.6902  2.13101970 32912
COSMOS 2534 (758)       
1 44299U 19030A   23027.20463630  .00000066  00000+0  00000+0 0  9999
2 44299  64.4058 234.4256 0010374 295.9584 190.8035  2.13101933 28571
COSMOS 2544 (759)       
1 44850U 19088A   23027.03487639 -.00000014  00000+0  16595+1 0  9992
2 44850  65.0093 115.1897 0012750 253.5726  88.3729  2.13102299 24331
COSMOS 2545 (760)       
1 45358U 20018A   23027.43972572 -.00000070  00000+0  00000+0 0  9995
2 45358  64.8938 355.5431 0011179 256.7943 244.9515  2.13102715 22305
COSMOS 2547 (705K)      
1 46805U 20075A   23026.31341796  .00000061  00000+0  00000+0 0  9999
2 46805  64.6321 233.9463 0005238 242.8572 328.6392  2.13103055 17523
COSMOS 2557 (706K)      
1 52984U 22075A   23027.37437509 -.00000069  00000+0  10000-3 0  9995
2 52984  64.8032 357.7281 0014025 283.7006 258.6475  2.13102055  4341
COSMOS 2559 (707K)      
1 54031U 22130A   23026.85562723 -.00000068  00000+0  00000+0 0  9995
2 54031  64.7731 357.8823 0007114 237.5989 311.9936  2.13101140  2316
COSMOS 2564 (761)       
1 54377U 22161A   23027.06198449  .00000066  00000+0  00000+0 0  9993
2 54377  64.7725 233.9344 0006567 210.3710 347.8547  2.13102159  1266
